EUTELSAT 7A             
1 28187U 04008A   25309.93526088  .00000114  00000+0  00000+0 0  9992
2 28187   5.2615  74.6629 0001580 189.2227 339.0645  1.00274370 79118
EUTELSAT 174A           
1 28924U 05052A   25309.78324674  .00000021  00000+0  00000+0 0  9998
2 28924   3.6512  79.2819 0006626 148.4706 273.4936  1.00271042 50095
EUTELSAT HOTBIRD 13B    
1 29270U 06032A   25309.96572392  .00000166  00000+0  00000+0 0  9994
2 29270   1.0817  84.6671 0003878 140.2836 201.2497  1.00271938 45062
EUTELSAT HOTBIRD 13C    
1 33459U 08065A   25302.32591028 -.00000088  00000+0  00000+0 0  9990
2 33459   2.3523  81.9104 0006142 154.2398 266.6285  1.00271861 45032
EUTELSAT 36B            
1 36101U 09065A   25309.90146069  .00000122  00000+0  00000+0 0  9998
2 36101   0.0464 348.4813 0006500 242.7414 189.2180  1.00273717 58463
EUTELSAT KA-SAT 9A      
1 37258U 10069A   25309.32241992  .00000074  00000+0  00000+0 0  9991
2 37258   0.0601 317.2283 0002361 221.6462 351.0837  1.00272648 41760
EUTELSAT 7 WEST A       
1 37816U 11051A   25309.89002062 -.00000050  00000+0  00000+0 0  9993
2 37816   0.0817  37.4421 0006576 177.7116 143.3358  1.00271486 51639
EUTELSAT 16A            
1 37836U 11057A   25309.89461398  .00000115  00000+0  00000+0 0  9993
2 37836   0.0647 348.8147 0006120 245.0744 149.5768  1.00272263  5082
